[
    {
        "Altitude(m)": 558590.4277489834,
        "Argument of Periapsis(deg)": 0.026491964442854003,
        "Eccentricity": 0.0,
        "Inclination(deg)": 53.0,
        "Latitude(deg)": 47.40849892624275,
        "Longitude(deg)": -57.79562539853052,
        "Mean Anomaly(deg)": -246.90632852968963,
        "RAAN(deg)": 279.96057347411204,
        "Satellite Name": "Starlink Shell 1 1236",
        "Satellite Number": 1236,
        "Semi-Major Axis(m)": 6931778.249405717,
        "Time(s)": 760
    },
    {
        "Altitude(m)": 558523.6152238135,
        "Argument of Periapsis(deg)": 0.02684054292236524,
        "Eccentricity": 0.0,
        "Inclination(deg)": 53.0,
        "Latitude(deg)": 47.11530230546398,
        "Longitude(deg)": -57.022231217230264,
        "Mean Anomaly(deg)": -246.279497326133,
        "RAAN(deg)": 279.9600547040346,
        "Satellite Name": "Starlink Shell 1 1236",
        "Satellite Number": 1236,
        "Semi-Major Axis(m)": 6931778.249405717,
        "Time(s)": 770
    },
    {
        "Altitude(m)": 558455.5721458409,
        "Argument of Periapsis(deg)": 0.027189121401876473,
        "Eccentricity": 0.0,
        "Inclination(deg)": 53.0,
        "Latitude(deg)": 46.81636144013435,
        "Longitude(deg)": -56.257816292228924,
        "Mean Anomaly(deg)": -245.65266612257622,
        "RAAN(deg)": 279.9595359339571,
        "Satellite Name": "Starlink Shell 1 1236",
        "Satellite Number": 1236,
        "Semi-Major Axis(m)": 6931778.249405717,
        "Time(s)": 780
    },
    {
        "Altitude(m)": 558386.3405972839,
        "Argument of Periapsis(deg)": 0.02753769988138771,
        "Eccentricity": 0.0,
        "Inclination(deg)": 53.0,
        "Latitude(deg)": 46.511797566629454,
        "Longitude(deg)": -55.50235683651786,
        "Mean Anomaly(deg)": -245.0258349190195,
        "RAAN(deg)": 279.9590171638796,
        "Satellite Name": "Starlink Shell 1 1236",
        "Satellite Number": 1236,
        "Semi-Major Axis(m)": 6931778.249405717,
        "Time(s)": 790
    },
    {
        "Altitude(m)": 558315.963468334,
        "Argument of Periapsis(deg)": 0.02788627836089895,
        "Eccentricity": 0.0,
        "Inclination(deg)": 53.0,
        "Latitude(deg)": 46.201730856114494,
        "Longitude(deg)": -54.7558204530963,
        "Mean Anomaly(deg)": -244.3990037154628,
        "RAAN(deg)": 279.95849839380213,
        "Satellite Name": "Starlink Shell 1 1236",
        "Satellite Number": 1236,
        "Semi-Major Axis(m)": 6931778.249405717,
        "Time(s)": 800
    },
    {
        "Altitude(m)": 558244.4844358609,
        "Argument of Periapsis(deg)": 0.02823485684041019,
        "Eccentricity": 0.0,
        "Inclination(deg)": 53.0,
        "Latitude(deg)": 45.886280302641914,
        "Longitude(deg)": -54.01816617957652,
        "Mean Anomaly(deg)": -243.7721725119061,
        "RAAN(deg)": 279.9579796237247,
        "Satellite Name": "Starlink Shell 1 1236",
        "Satellite Number": 1236,
        "Semi-Major Axis(m)": 6931778.249405717,
        "Time(s)": 810
    },
    {
        "Altitude(m)": 558171.9479416987,
        "Argument of Periapsis(deg)": 0.028583435319921423,
        "Eccentricity": 0.0,
        "Inclination(deg)": 53.0,
        "Latitude(deg)": 45.56556362136582,
        "Longitude(deg)": -53.289344524350064,
        "Mean Anomaly(deg)": -243.1453413083494,
        "RAAN(deg)": 279.9574608536472,
        "Satellite Name": "Starlink Shell 1 1236",
        "Satellite Number": 1236,
        "Semi-Major Axis(m)": 6931778.249405717,
        "Time(s)": 820
    },
    {
        "Altitude(m)": 558098.3991705412,
        "Argument of Periapsis(deg)": 0.028932013799432665,
        "Eccentricity": 0.0,
        "Inclination(deg)": 53.0,
        "Latitude(deg)": 45.2396971565266,
        "Longitude(deg)": -52.56929900512106,
        "Mean Anomaly(deg)": -242.51851010479265,
        "RAAN(deg)": 279.9569420835697,
        "Satellite Name": "Starlink Shell 1 1236",
        "Satellite Number": 1236,
        "Semi-Major Axis(m)": 6931778.249405717,
        "Time(s)": 830
    },
    {
        "Altitude(m)": 558023.8840274302,
        "Argument of Periapsis(deg)": 0.029280592278943897,
        "Eccentricity": 0.0,
        "Inclination(deg)": 53.0,
        "Latitude(deg)": 44.908795798837254,
        "Longitude(deg)": -51.85796616227806,
        "Mean Anomaly(deg)": -241.8916789012359,
        "RAAN(deg)": 279.9564233134923,
        "Satellite Name": "Starlink Shell 1 1236",
        "Satellite Number": 1236,
        "Semi-Major Axis(m)": 6931778.249405717,
        "Time(s)": 840
    },
    {
        "Altitude(m)": 557948.449114885,
        "Argument of Periapsis(deg)": 0.029629170758455132,
        "Eccentricity": 0.0,
        "Inclination(deg)": 53.0,
        "Latitude(deg)": 44.57297291187879,
        "Longitude(deg)": -51.1552755584393,
        "Mean Anomaly(deg)": -241.26484769767922,
        "RAAN(deg)": 279.9559045434148,
        "Satellite Name": "Starlink Shell 1 1236",
        "Satellite Number": 1236,
        "Semi-Major Axis(m)": 6931778.249405717,
        "Time(s)": 850
    },
    {
        "Altitude(m)": 557872.1417096386,
        "Argument of Periapsis(deg)": 0.02997774923796637,
        "Eccentricity": 0.0,
        "Inclination(deg)": 53.0,
        "Latitude(deg)": 44.232340267095005,
        "Longitude(deg)": -50.46115144384874,
        "Mean Anomaly(deg)": -240.63801649412252,
        "RAAN(deg)": 279.9553857733373,
        "Satellite Name": "Starlink Shell 1 1236",
        "Satellite Number": 1236,
        "Semi-Major Axis(m)": 6931778.249405717,
        "Time(s)": 860
    },
    {
        "Altitude(m)": 557795.0097390193,
        "Argument of Periapsis(deg)": 0.030326327717477602,
        "Eccentricity": 0.0,
        "Inclination(deg)": 53.0,
        "Latitude(deg)": 43.88700798697241,
        "Longitude(deg)": -49.77551188414031,
        "Mean Anomaly(deg)": -240.01118529056583,
        "RAAN(deg)": 279.95486700325984,
        "Satellite Name": "Starlink Shell 1 1236",
        "Satellite Number": 1236,
        "Semi-Major Axis(m)": 6931778.249405717,
        "Time(s)": 870
    },
    {
        "Altitude(m)": 557717.1017569785,
        "Argument of Periapsis(deg)": 0.030674906196988847,
        "Eccentricity": 0.0,
        "Inclination(deg)": 53.0,
        "Latitude(deg)": 43.53708449597459,
        "Longitude(deg)": -49.0982703925187,
        "Mean Anomaly(deg)": -239.38435408700906,
        "RAAN(deg)": 279.9543482331824,
        "Satellite Name": "Starlink Shell 1 1236",
        "Satellite Number": 1236,
        "Semi-Major Axis(m)": 6931778.249405717,
        "Time(s)": 880
    },
    {
        "Altitude(m)": 557638.4669197835,
        "Argument of Periapsis(deg)": 0.031023484676500086,
        "Eccentricity": 0.0,
        "Inclination(deg)": 53.0,
        "Latitude(deg)": 43.18267647880814,
        "Longitude(deg)": -48.42933586328129,
        "Mean Anomaly(deg)": -238.75752288345234,
        "RAAN(deg)": 279.9538294631049,
        "Satellite Name": "Starlink Shell 1 1236",
        "Satellite Number": 1236,
        "Semi-Major Axis(m)": 6931778.249405717,
        "Time(s)": 890
    },
    {
        "Altitude(m)": 557559.154961382,
        "Argument of Periapsis(deg)": 0.03137206315601132,
        "Eccentricity": 0.0,
        "Inclination(deg)": 53.0,
        "Latitude(deg)": 42.8238888455908,
        "Longitude(deg)": -47.768612487169314,
        "Mean Anomaly(deg)": -238.13069167989565,
        "RAAN(deg)": 279.95331069302745,
        "Satellite Name": "Starlink Shell 1 1236",
        "Satellite Number": 1236,
        "Semi-Major Axis(m)": 6931778.249405717,
        "Time(s)": 900
    },
    {
        "Altitude(m)": 557479.2161684417,
        "Argument of Periapsis(deg)": 0.03172064163552255,
        "Eccentricity": 0.0,
        "Inclination(deg)": 53.0,
        "Latitude(deg)": 42.46082470349608,
        "Longitude(deg)": -47.11600116110056,
        "Mean Anomaly(deg)": -237.50386047633893,
        "RAAN(deg)": 279.9527919229499,
        "Satellite Name": "Starlink Shell 1 1236",
        "Satellite Number": 1236,
        "Semi-Major Axis(m)": 6931778.249405717,
        "Time(s)": 910
    },
    {
        "Altitude(m)": 557398.7013550746,
        "Argument of Periapsis(deg)": 0.0320692201150338,
        "Eccentricity": 0.0,
        "Inclination(deg)": 53.0,
        "Latitude(deg)": 42.09358533446155,
        "Longitude(deg)": -46.471399366373205,
        "Mean Anomaly(deg)": -236.87702927278224,
        "RAAN(deg)": 279.95227315287246,
        "Satellite Name": "Starlink Shell 1 1236",
        "Satellite Number": 1236,
        "Semi-Major Axis(m)": 6931778.249405717,
        "Time(s)": 920
    },
    {
        "Altitude(m)": 557317.6618372959,
        "Argument of Periapsis(deg)": 0.032417798594545036,
        "Eccentricity": 0.0,
        "Inclination(deg)": 53.0,
        "Latitude(deg)": 41.722270178549635,
        "Longitude(deg)": -45.83470102816986,
        "Mean Anomaly(deg)": -236.2501980692255,
        "RAAN(deg)": 279.95175438279506,
        "Satellite Name": "Starlink Shell 1 1236",
        "Satellite Number": 1236,
        "Semi-Major Axis(m)": 6931778.249405717,
        "Time(s)": 930
    },
    {
        "Altitude(m)": 557236.1494071538,
        "Argument of Periapsis(deg)": 0.03276637707405627,
        "Eccentricity": 0.0,
        "Inclination(deg)": 53.0,
        "Latitude(deg)": 41.346976822561054,
        "Longitude(deg)": -45.20579786931102,
        "Mean Anomaly(deg)": -235.62336686566874,
        "RAAN(deg)": 279.95123561271754,
        "Satellite Name": "Starlink Shell 1 1236",
        "Satellite Number": 1236,
        "Semi-Major Axis(m)": 6931778.249405717,
        "Time(s)": 940
    }
]